{"type": "FeatureCollection", "features": [ {"type": "Feature", "properties": {"norad_id": 39778, "name": "IRIDIUM 33 DEB", "group": "iridium-33-debris", "lat": -26.315311742701763, "lon": 42.19315369739532, "alt_km": 715.8538301688741, "timestamp": "2025-12-10T23:33:13.203801+00:00", "meta": {"OBJECT_NAME": "IRIDIUM 33 DEB", "OBJECT_ID": "1997-051AAK", "EPOCH": "2025-12-09T14:38:46.743072", "MEAN_MOTION": 14.5422784, "ECCENTRICITY": 0.000831, "INCLINATION": 86.3774, "RA_OF_ASC_NODE": 44.5837, "ARG_OF_PERICENTER": 51.0952, "MEAN_ANOMALY": 309.0995, "EPHEMERIS_TYPE": 0, "CLASSIFICATION_TYPE": "U", "NORAD_CAT_ID": 39778, "ELEMENT_SET_NO": 999, "REV_AT_EPOCH": 60647, "BSTAR": 0.0013888, "MEAN_MOTION_DOT": 5.904e-05, "MEAN_MOTION_DDOT": 0}, "tle": {"line1": "1 39778U 97051AAK 25343.61026323  .00005904  00000+0  13888-2 0  9993", "line2": "2 39778  86.3774  44.5837 0008310  51.0952 309.0995 14.54227840606471"}}, "geometry": {"type": "Point", "coordinates": [42.19315369739532, -26.315311742701763]}}, {"type": "Feature", "properties": {"norad_id": 39781, "name": "IRIDIUM 33 DEB", "group": "iridium-33-debris", "lat": -56.762475902353124, "lon": -106.85722055966482, "alt_km": 713.633955567655, "timestamp": "2025-12-10T23:33:13.203810+00:00", "meta": {"OBJECT_NAME": "IRIDIUM 33 DEB", "OBJECT_ID": "1997-051AAN", "EPOCH": "2025-12-10T12:50:43.071936", "MEAN_MOTION": 14.20526294, "ECCENTRICITY": 0.01776476, "INCLINATION": 86.3688, "RA_OF_ASC_NODE": 258.8875, "ARG_OF_PERICENTER": 280.3091, "MEAN_ANOMALY": 261.6771, "EPHEMERIS_TYPE": 0, "CLASSIFICATION_TYPE": "U", "NORAD_CAT_ID": 39781, "ELEMENT_SET_NO": 999, "REV_AT_EPOCH": 8075, "BSTAR": 0.0089105992, "MEAN_MOTION_DOT": 0.00022501, "MEAN_MOTION_DDOT": 0}, "tle": {"line1": "1 39781U 97051AAN 25344.53522074  .00022501  00000+0  89106-2 0  9991", "line2": "2 39781  86.3688 258.8875 0177647 280.3091 261.6771 14.20526294 80752"}}, "geometry": {"type": "Point", "coordinates": [-106.85722055966482, -56.762475902353124]}}, {"type": "Feature", "properties": {"norad_id": 39783, "name": "IRIDIUM 33 DEB", "group": "iridium-33-debris", "lat": -75.31198413936485, "lon": 91.16086467815872, "alt_km": 481.0483608298464, "timestamp": "2025-12-10T23:33:13.203819+00:00", "meta": {"OBJECT_NAME": "IRIDIUM 33 DEB", "OBJECT_ID": "1997-051AAQ", "EPOCH": "2025-11-16T15:05:40.850592", "MEAN_MOTION": 15.19327111, "ECCENTRICITY": 0.00057535, "INCLINATION": 86.1306, "RA_OF_ASC_NODE": 268.8004, "ARG_OF_PERICENTER": 179.9151, "MEAN_ANOMALY": 1.8316, "EPHEMERIS_TYPE": 0, "CLASSIFICATION_TYPE": "U", "NORAD_CAT_ID": 39783, "ELEMENT_SET_NO": 999, "REV_AT_EPOCH": 60401, "BSTAR": 0.010398125, "MEAN_MOTION_DOT": 0.00226179, "MEAN_MOTION_DDOT": 0}, "tle": {"line1": "1 39783U 97051AAQ 25320.62894503  .00226179  00000+0  10398-1 0  9999", "line2": "2 39783  86.1306 268.8004 0005753 179.9151   1.8316 15.19327111604018"}}, "geometry": {"type": "Point", "coordinates": [91.16086467815872, -75.31198413936485]}}, {"type": "Feature", "properties": {"norad_id": 40996, "name": "IRIDIUM 33 DEB", "group": "iridium-33-debris", "lat": -6.417229063270213, "lon": 1.8196963587547526, "alt_km": 580.6417772716823, "timestamp": "2025-12-10T23:33:13.203837+00:00", "meta": {"OBJECT_NAME": "IRIDIUM 33 DEB", "OBJECT_ID": "1997-051ABJ", "EPOCH": "2025-12-09T19:28:10.178688", "MEAN_MOTION": 14.95954954, "ECCENTRICITY": 0.00121472, "INCLINATION": 86.3518, "RA_OF_ASC_NODE": 2.7772, "ARG_OF_PERICENTER": 71.5463, "MEAN_ANOMALY": 104.382, "EPHEMERIS_TYPE": 0, "CLASSIFICATION_TYPE": "U", "NORAD_CAT_ID": 40996, "ELEMENT_SET_NO": 999, "REV_AT_EPOCH": 62444, "BSTAR": 0.0038127414, "MEAN_MOTION_DOT": 0.00042994, "MEAN_MOTION_DDOT": 0}, "tle": {"line1": "1 40996U 97051ABJ 25343.81122892  .00042994  00000+0  38127-2 0  9990", "line2": "2 40996  86.3518   2.7772 0012147  71.5463 104.3820 14.95954954624440"}}, "geometry": {"type": "Point", "coordinates": [1.8196963587547526, -6.417229063270213]}}, {"type": "Feature", "properties": {"norad_id": 40998, "name": "IRIDIUM 33 DEB", "group": "iridium-33-debris", "lat": 51.107823766549345, "lon": 58.90471273468445, "alt_km": 731.6640941617761, "timestamp": "2025-12-10T23:33:13.203847+00:00", "meta": {"OBJECT_NAME": "IRIDIUM 33 DEB", "OBJECT_ID": "1997-051ABL", "EPOCH": "2025-12-09T22:57:49.203072", "MEAN_MOTION": 14.45082428, "ECCENTRICITY": 0.00095723, "INCLINATION": 86.3826, "RA_OF_ASC_NODE": 54.8444, "ARG_OF_PERICENTER": 91.708, "MEAN_ANOMALY": 32.8835, "EPHEMERIS_TYPE": 0, "CLASSIFICATION_TYPE": "U", "NORAD_CAT_ID": 40998, "ELEMENT_SET_NO": 999, "REV_AT_EPOCH": 6641, "BSTAR": 0.00070534207, "MEAN_MOTION_DOT": 2.485e-05, "MEAN_MOTION_DDOT": 0}, "tle": {"line1": "1 40998U 97051ABL 25343.95681948  .00002485  00000+0  70534-3 0  9999", "line2": "2 40998  86.3826  54.8444 0009572  91.7080  32.8835 14.45082428 66416"}}, "geometry": {"type": "Point", "coordinates": [58.90471273468445, 51.107823766549345]}}, {"type": "Feature", "properties": {"norad_id": 46435, "name": "IRIDIUM 33 DEB", "group": "iridium-33-debris", "lat": 1.3187177755307091, "lon": -165.2080895784496, "alt_km": 757.0514974112448, "timestamp": "2025-12-10T23:33:13.203856+00:00", "meta": {"OBJECT_NAME": "IRIDIUM 33 DEB", "OBJECT_ID": "1997-051ABN", "EPOCH": "2025-12-08T08:41:01.195296", "MEAN_MOTION": 14.31888327, "ECCENTRICITY": 0.02102864, "INCLINATION": 86.2835, "RA_OF_ASC_NODE": 195.8323, "ARG_OF_PERICENTER": 290.5462, "MEAN_ANOMALY": 252.8586, "EPHEMERIS_TYPE": 0, "CLASSIFICATION_TYPE": "U", "NORAD_CAT_ID": 46435, "ELEMENT_SET_NO": 999, "REV_AT_EPOCH": 7853, "BSTAR": 0.0090831914, "MEAN_MOTION_DOT": 0.00031152, "MEAN_MOTION_DDOT": 0}, "tle": {"line1": "1 46435U 97051ABN 25342.36181939  .00031152  00000+0  90832-2 0  9995", "line2": "2 46435  86.2835 195.8323 0210286 290.5462 252.8586 14.31888327 78538"}}, "geometry": {"type": "Point", "coordinates": [-165.2080895784496, 1.3187177755307091]}}, {"type": "Feature", "properties": {"norad_id": 46734, "name": "IRIDIUM 33 DEB", "group": "iridium-33-debris", "lat": 49.10668939173128, "lon": 179.31133420687036, "alt_km": 771.9990334018285, "timestamp": "2025-12-10T23:33:13.203867+00:00", "meta": {"OBJECT_NAME": "IRIDIUM 33 DEB", "OBJECT_ID": "1997-051ABR", "EPOCH": "2025-12-03T20:12:35.443296", "MEAN_MOTION": 14.41795233, "ECCENTRICITY": 0.00394426, "INCLINATION": 86.2642, "RA_OF_ASC_NODE": 6.7702, "ARG_OF_PERICENTER": 5.4679, "MEAN_ANOMALY": 171.2392, "EPHEMERIS_TYPE": 0, "CLASSIFICATION_TYPE": "U", "NORAD_CAT_ID": 46734, "ELEMENT_SET_NO": 999, "REV_AT_EPOCH": 62882, "BSTAR": 0.0014594249, "MEAN_MOTION_DOT": 4.83e-05, "MEAN_MOTION_DDOT": 0}, "tle": {"line1": "1 46734U 97051ABR 25337.84207689  .00004830  00000+0  14594-2 0  9999", "line2": "2 46734  86.2642   6.7702 0039442   5.4679 171.2392 14.41795233628829"}}, "geometry": {"type": "Point", "coordinates": [179.31133420687036, 49.10668939173128]}}, {"type": "Feature", "properties": {"norad_id": 46965, "name": "IRIDIUM 33 DEB", "group": "iridium-33-debris", "lat": 28.123842639677484, "lon": 159.51406898428968, "alt_km": 704.1143555454473, "timestamp": "2025-12-10T23:33:13.203876+00:00", "meta": {"OBJECT_NAME": "IRIDIUM 33 DEB", "OBJECT_ID": "1997-051ABX", "EPOCH": "2025-12-09T11:22:29.536608", "MEAN_MOTION": 14.60256222, "ECCENTRICITY": 0.0018504, "INCLINATION": 86.3353, "RA_OF_ASC_NODE": 342.1454, "ARG_OF_PERICENTER": 344.7825, "MEAN_ANOMALY": 167.4281, "EPHEMERIS_TYPE": 0, "CLASSIFICATION_TYPE": "U", "NORAD_CAT_ID": 46965, "ELEMENT_SET_NO": 999, "REV_AT_EPOCH": 62220, "BSTAR": 0.0013057124, "MEAN_MOTION_DOT": 6.336e-05, "MEAN_MOTION_DDOT": 0}, "tle": {"line1": "1 46965U 97051ABX 25343.47395297  .00006336  00000+0  13057-2 0  9990", "line2": "2 46965  86.3353 342.1454 0018504 344.7825 167.4281 14.60256222622205"}}, "geometry": {"type": "Point", "coordinates": [159.51406898428968, 28.123842639677484]}}, {"type": "Feature", "properties": {"norad_id": 46971, "name": "IRIDIUM 33 DEB", "group": "iridium-33-debris", "lat": -6.197461007119945, "lon": -26.45778798202366, "alt_km": 574.813119492358, "timestamp": "2025-12-10T23:33:13.203887+00:00", "meta": {"OBJECT_NAME": "IRIDIUM 33 DEB", "OBJECT_ID": "1997-051ACD", "EPOCH": "2025-12-09T17:53:50.411040", "MEAN_MOTION": 14.9771662, "ECCENTRICITY": 0.00041979, "INCLINATION": 86.3387, "RA_OF_ASC_NODE": 334.5212, "ARG_OF_PERICENTER": 335.9126, "MEAN_ANOMALY": 199.6728, "EPHEMERIS_TYPE": 0, "CLASSIFICATION_TYPE": "U", "NORAD_CAT_ID": 46971, "ELEMENT_SET_NO": 999, "REV_AT_EPOCH": 64185, "BSTAR": 0.0038941985, "MEAN_MOTION_DOT": 0.00045901, "MEAN_MOTION_DDOT": 0}, "tle": {"line1": "1 46971U 97051ACD 25343.74572235  .00045901  00000+0  38942-2 0  9997", "line2": "2 46971  86.3387 334.5212 0004197 335.9126 199.6728 14.97716620641853"}}, "geometry": {"type": "Point", "coordinates": [-26.45778798202366, -6.197461007119945]}}, {"type": "Feature", "properties": {"norad_id": 46974, "name": "IRIDIUM 33 DEB", "group": "iridium-33-debris", "lat": -31.29774543599453, "lon": 103.7882697894189, "alt_km": 799.4280017935253, "timestamp": "2025-12-10T23:33:13.203897+00:00", "meta": {"OBJECT_NAME": "IRIDIUM 33 DEB", "OBJECT_ID": "1997-051ACG", "EPOCH": "2025-12-08T01:51:35.109216", "MEAN_MOTION": 14.44143429, "ECCENTRICITY": 0.0095872, "INCLINATION": 86.2996, "RA_OF_ASC_NODE": 107.3101, "ARG_OF_PERICENTER": 202.1724, "MEAN_ANOMALY": 157.532, "EPHEMERIS_TYPE": 0, "CLASSIFICATION_TYPE": "U", "NORAD_CAT_ID": 46974, "ELEMENT_SET_NO": 999, "REV_AT_EPOCH": 57441, "BSTAR": 0.006255, "MEAN_MOTION_DOT": 0.00022746, "MEAN_MOTION_DDOT": 0}, "tle": {"line1": "1 46974U 97051ACG 25342.07748969  .00022746  00000+0  62550-2 0  9998", "line2": "2 46974  86.2996 107.3101 0095872 202.1724 157.5320 14.44143429574414"}}, "geometry": {"type": "Point", "coordinates": [103.7882697894189, -31.29774543599453]}}]}